ORBCOMM FM103           
1 40091U 14040F   25289.38970652  .00000827  00000+0  21319-3 0  9994
2 40091  47.0042 165.3321 0001241 119.5577 240.5432 14.58382567581796
ORBCOMM FM114           
1 41179U 15081A   25289.68195720  .00001117  00000+0  27505-3 0  9992
2 41179  47.0027  72.9320 0002402 198.8715 161.2082 14.58419720522206
ORBCOMM FM119           
1 41180U 15081B   25290.08651372  .00001064  00000+0  26404-3 0  9998
2 41180  47.0016 340.3686 0002025 256.5411 103.5249 14.58362165523518
ORBCOMM FM110           
1 41182U 15081D   25289.12559749  .00001510  00000+0  35867-3 0  9997
2 41182  47.0015  75.0891 0001791  26.9372 333.1607 14.58452077521994
ORBCOMM FM118           
1 41183U 15081E   25290.11757378  .00001090  00000+0  26926-3 0  9996
2 41183  47.0040  70.6714 0002593 339.9235  20.1548 14.58415167522249
ORBCOMM FM113           
1 41185U 15081G   25289.41449747  .00001136  00000+0  27865-3 0  9991
2 41185  47.0006 342.9271 0001817 228.2462 131.8269 14.58476746523348
